    CK19C010  2020 05  4.2803  6.575765  0.989825  319.0714  212.3918   36.0509  20230513  10.0  4.0  C/2019 C1 (ATLAS)                                        MPEC 2021-P47
    CK19D010  2019 05 11.0998  1.586217  0.988844   70.6881  231.6601   34.0080  20230513  13.0  4.0  C/2019 D1 (Flewelling)                                   MPEC 2022-O08
    CK19E030  2023 11 14.9739 10.313038  0.999592  280.6864  347.2442   84.2973  20230513   2.5  4.0  C/2019 E3 (ATLAS)                                        MPEC 2023-J29
    CK19F010  2021 06 22.9728  3.602308  1.002960  251.3013   38.6667   54.2289  20230513   5.5  4.0  C/2019 F1 (ATLAS-Africano)                               MPEC 2023-CD7
    CK19F020  2019 09  7.8491  2.246192  0.864873   11.6299  175.4488   19.2751  20230513  12.0  4.0  C/2019 F2 (ATLAS)                                        MPEC 2021-P47
    AK19G020  2019 12  8.4945  2.293978  0.994748   82.6060  208.1605  159.2141  20230513  16.5  2.0  A/2019 G2                                                MPEC 2021-P47
    AK19G030  2018 12  4.4748  2.847561  0.834475  161.9088   49.8965  156.8068  20230513  17.1  2.0  A/2019 G3                                                MPEC 2022-VC5
    CK19G040  2018 09 15.6919  5.848218  1.001639  287.7595  130.4504  138.3504  20230513   9.5  4.0  C/2019 G4 (PANSTARRS)                                    MPEC 2022-P82
    PK19G21G  2019 05 10.0574  3.944669  0.471860  208.5988  340.5561    6.0863  20230513  12.0  4.0  P/2019 GG21 (PANSTARRS)                                  MPC114607
    CK19H010  2019 04 27.9587  1.844769  0.992522   19.3362  269.2716  104.4523  20230513  15.5  4.0  C/2019 H1 (NEOWISE)                                      MPEC 2022-M21
    CK19J010  2019 04  7.7327  2.485004  0.963643  167.7382   98.1615   24.5400  20230513  12.0  4.0  C/2019 J1 (Lemmon)                                       MPEC 2023-A50
    CK19J020  2019 07 20.4003  1.721478  0.989371   98.6877   25.5611  105.2336  20230513  13.0  4.0  C/2019 J2 (Palomar)                                      MPEC 2021-R75
    CK19J030  2019 08  2.4225  2.370808  1.000625   16.6066  270.6056  131.3509  20230513  13.5  4.0  C/2019 J3 (ATLAS)                                        MPC117071
    CK19J06U  2019 06  1.9228  2.044053  1.000051   94.9935   21.7657  148.3314  20230513  14.5  4.0  C/2019 JU6 (ATLAS)                                       MPEC 2022-M21
    CK19K010  2020 02 12.6812  2.013977  0.999816  265.7247   73.3377   87.0535  20230513  10.0  4.0  C/2019 K1 (ATLAS)                                        MPEC 2022-O08
    CK19K040  2019 06 15.6008  2.268530  0.998359  139.8841  180.1517  105.2970  20230513  12.5  4.0  C/2019 K4 (Ye)                                           MPC119997
    CK19K050  2019 06 22.9733  2.042562  0.987860  175.1416  177.1340   15.3179  20230513  13.0  4.0  C/2019 K5 (Young)                                        MPEC 2021-P47
    CK19K060  2020 05 19.9807  3.924301  0.997440  187.5846   42.9954  132.3812  20230513  11.5  4.0  C/2019 K6 (PANSTARRS)                                    MPEC 2021-P47
    CK19K070  2020 06 17.6099  4.478307  1.000923   27.4031  307.9667  103.5311  20230513   6.0  4.0  C/2019 K7 (Smith)                                        MPEC 2023-J29
    CK19K080  2019 07 21.7406  3.193249  0.998783   85.3798  291.0283   93.1391  20230513  11.5  4.0  C/2019 K8 (ATLAS)                                        MPEC 2021-R75
    CK19L010  2019 08 10.5826  2.899488  0.705344   50.0523  254.4301    9.9796  20230513  13.5  4.0  C/2019 L1 (PANSTARRS)                                    MPEC 2023-A50
    CK19L020  2019 04  1.9782  1.626043  0.935046   18.8430   12.5487  152.2101  20230513  16.0  4.0  C/2019 L2 (NEOWISE)                                      MPC115886
    PK19L02D  2020 03  5.3578  4.558284  0.126595  119.9171  179.5819   11.6197  20230513  12.0  4.0  P/2019 LD2 (ATLAS)                                       MPEC 2023-HD1
    CK19L030  2022 01  9.6742  3.554493  1.002133  171.6235  290.7757   48.3492  20230513   4.5  4.0  C/2019 L3 (ATLAS)                                        MPEC 2023-J95
    CK19L07B  2019 03 26.2845  2.491532  0.928171  336.5767    3.8896  164.2914  20230513  17.0  4.0  C/2019 LB7 (Kleyna)                                      MPC118095
    PK19M020  2024 09 28.1433  1.067966  0.647407  332.5499  307.6161   12.2706  20230513  21.2  4.0  P/2019 M2 (ATLAS)                                        MPEC 2022-O08
    CK19M030  2018 12 31.9228  2.422179  0.999642   87.8953  154.9325   99.5172  20230513  12.2  4.0  C/2019 M3 (ATLAS)                                        MPC118095
    CK19M040  2019 09 12.4289  9.187765  1.003895  260.3721   52.6443   65.6837  20230513   5.0  4.0  C/2019 M4 (TESS)                                         MPEC 2023-JA2
    CK19N010  2020 12  1.3010  1.705404  0.998955  193.4166   13.5716   82.4321  20230513   7.5  4.0  C/2019 N1 (ATLAS)                                        MPEC 2023-C45
    AK19N020  2019 08 22.7550  1.947670  0.998804  347.1937  276.1242   89.3855  20230513  12.5  2.0  A/2019 N2                                                MPEC 2023-CD8
    CK19N03J  2020 10 22.9362  4.362784  1.002486  246.9112  142.4706   99.4171  20230513   9.0  4.0  C/2019 NJ3 (Lemmon)                                      MPEC 2022-A21
    AK19O020  2023 04  7.1667  9.682789  0.832854  129.6370   48.2621   93.3079  20230513   9.5  2.0  A/2019 O2                                                MPEC 2023-J95
    CK19O030  2021 03  9.5833  8.821015  1.004366   60.1287  300.4217   89.8185  20230513   3.5  4.0  C/2019 O3 (Palomar)                                      MPEC 2023-J95
    AK19O040  2020 02 10.8800  3.646081  0.890482   61.9039  354.9098  115.0883  20230513  15.5  2.0  A/2019 O4                                                MPEC 2021-P47
    CK19Q010  2020 07 20.7481  5.002977  1.000795   56.1966   42.4600  155.7295  20230513   8.5  4.0  C/2019 Q1 (Lemmon)                                       MPEC 2023-A50
    AK19Q020  2019 07 22.1239  1.262879  0.978187  176.3950  188.0119  159.0287  20230513  18.0  2.0  A/2019 Q2                                                MPC117072
    CK19Q030  2018 08 21.3317  7.266467  1.002522  152.7954  151.3413   65.5400  20230513   8.5  4.0  C/2019 Q3 (PANSTARRS)                                    MPC117072
    PK19S020  2019 02 21.7996  3.767442  0.205668  217.1569   93.1389   10.4657  20230513  13.5  4.0  P/2019 S2 (PANSTARRS)                                    MPC117072
    PK19S030  2025 12 18.6961  1.806158  0.471172  213.0579  150.1504    8.6927  20230513  18.3  4.0  P/2019 S3 (PANSTARRS)                                    MPEC 2022-CN4
    CK19S040  2020 04  8.0822  3.442417  0.985332   71.3773   63.1486   92.0823  20230513  11.0  4.0  C/2019 S4 (Lemmon)                                       MPEC 2021-S45
    AK19T010  2021 01 14.8286  4.281414  0.889526   91.0714    6.9449  120.8752  20230513  13.0  2.0  A/2019 T1                                                MPEC 2023-G31
    CK19T020  2021 04 22.5354  2.646237  0.999359  239.4310  155.6503  111.4726  20230513   9.0  4.0  C/2019 T2 (Lemmon)                                       MPEC 2023-J29
    CK19T030  2021 03  4.2893  5.951911  0.998290  112.4515  139.5320  121.8440  20230513   6.8  4.0  C/2019 T3 (ATLAS)                                        MPEC 2022-WQ9
    CK19T040  2022 06  8.9410  4.241927  0.995560  351.1695  199.9390   53.6318  20230513   5.0  4.0  C/2019 T4 (ATLAS)                                        MPEC 2023-J95
    PK19T050  2019 08  1.8565  1.523171  0.809546  189.5675  247.6243   33.4900  20230513  15.0  4.0  P/2019 T5 (ATLAS)                                        MPEC 2021-P47
    PK19T060  2019 11  8.5888  2.049777  0.623058  329.0021   71.2211   18.7024  20230513  15.5  4.0  P/2019 T6 (PANSTARRS)                                    MPEC 2021-P47
    PK19U040  2026 04 27.9764  1.844552  0.476008  181.0308  200.0007   11.7005  20230513  19.0  4.0  P/2019 U4 (PANSTARRS)                                    MPC118096
    CK19U050  2023 03 29.8319  3.624196  1.001433  181.4932    2.6373  113.5195  20230513   4.5  4.0  C/2019 U5 (PANSTARRS)                                    MPEC 2023-J95
    CK19U060  2020 06 18.4210  0.913260  0.997306  329.5711  235.7622   60.9777  20230513  10.0  4.0  C/2019 U6 (Lemmon)                                       MPEC 2022-H04
    CK19V010  2020 07 16.4375  3.095090  0.997980   51.1627   83.1670   61.9080  20230513  11.0  4.0  C/2019 V1 (Borisov)                                      MPEC 2022-N37
    PK19V020  2020 10 17.4143  5.016245  0.331132  335.7531  189.1845   11.8082  20230513  10.0  4.0  P/2019 V2 (Groeller)                                     MPEC 2022-L66
    PK19W010  2019 05  9.1310  3.334093  0.267103   18.7284   35.3767   23.4751  20230513  12.9  4.0  P/2019 W1 (PANSTARRS)                                    MPEC 2023-A50
    PK19X010  2019 07 22.1107  4.299412  0.303658   36.8087   43.6646   10.2502  20230513  10.4  4.0  P/2019 X1 (Pruyne)                                       MPEC 2021-P47
    CK19Y010  2020 03 16.0372  0.828986  0.990420   57.9128   31.5560   73.3566  20230513  13.7  4.0  C/2019 Y1 (ATLAS)                                        MPC119999
    CK19Y040  2020 05 30.8759  0.255116  0.999279  177.4528  120.6574   45.2233  20230513  11.8  6.0  C/2019 Y4 (ATLAS)                                        MPEC 2022-YN2
    CK19Y04a  2020 05 30.9032  0.253270  1.001419  177.2866  121.0188   45.6661  20230513  11.6  6.0  C/2019 Y4-A (ATLAS)                                      MPEC 2020-L06
    CK19Y04b  2020 05 30.8811  0.254583  1.000021  177.3969  120.7634   45.3542  20230513  12.1  6.0  C/2019 Y4-B (ATLAS)                                      MPEC 2023-J29
    CK19Y04c  2020 05 30.8577  0.254337  1.002143  177.3199  120.7453   45.4485  20230513  12.7  6.0  C/2019 Y4-C (ATLAS)                                      MPEC 2020-L06
